start=new Date('2022-02-25T00:00:00.000Z').valueOf();
sats=[{"OBJECT_TYPE":"PAYLOAD","APOAPSIS":"428.621","COUNTRY_CODE":"US","SEMIMAJOR_AXIS":"6805.450","DECAY_DATE":null,"OBJECT_NAME":"STARLINK-3311","FILE":"3320325","PERIAPSIS":"426.010","SITE":"AFETR","PERIOD":"93.120","CENTER_NAME":"EARTH","CLASSIFICATION_TYPE":"U","BSTAR":"-0.01414700000000","EPOCH":"2022-02-24T22:00:00.999936","MEAN_MOTION_DOT":"-0.00654112","OBJECT_ID":"2022-001AY","TLE_LINE2":"2 50849  53.2175 318.6582 0001918  31.9311  80.0410 15.46384435  3673","MEAN_MOTION_DDOT":"0.0000000000000","REF_FRAME":"TEME","ARG_OF_PERICENTER":"31.9311","TIME_SYSTEM":"UTC","REV_AT_EPOCH":"367","GP_ID":"196904296","EPHEMERIS_TYPE":"0","MEAN_MOTION":"15.46384435","TLE_LINE1":"1 50849U 22001AY  22055.91667824 -.00654112  00000-0 -14147-1 0  9997","RCS_SIZE":"LARGE","MEAN_ELEMENT_THEORY":"SGP4","LAUNCH_DATE":"2022-01-06","ELEMENT_SET_NO":"999","INCLINATION":"53.2175","NORAD_CAT_ID":"50849","MEAN_ANOMALY":"80.0410","RA_OF_ASC_NODE":"318.6582","ECCENTRICITY":"0.00019180"},{"EPHEMERIS_TYPE":"0","TLE_LINE1":"1 50850U 22001AZ  22055.91667824 -.00568466  00000-0 -42947-2 0  9995","MEAN_MOTION":"15.73366120","RCS_SIZE":"LARGE","GP_ID":"196904047","EPOCH":"2022-02-24T22:00:00.999936","MEAN_MOTION_DOT":"-0.00568466","TIME_SYSTEM":"UTC","REV_AT_EPOCH":"367","REF_FRAME":"TEME","TLE_LINE2":"2 50850  53.2165 316.4151 0001934  33.4389 103.2507 15.73366120  3678","MEAN_MOTION_DDOT":"0.0000000000000","OBJECT_ID":"2022-001AZ","ARG_OF_PERICENTER":"33.4389","MEAN_ANOMALY":"103.2507","ECCENTRICITY":"0.00019340","RA_OF_ASC_NODE":"316.4151","MEAN_ELEMENT_THEORY":"SGP4","ELEMENT_SET_NO":"999","INCLINATION":"53.2165","NORAD_CAT_ID":"50850","LAUNCH_DATE":"2022-01-06","DECAY_DATE":null,"SEMIMAJOR_AXIS":"6727.422","OBJECT_NAME":"STARLINK-3312","OBJECT_TYPE":"PAYLOAD","APOAPSIS":"350.588","COUNTRY_CODE":"US","CENTER_NAME":"EARTH","CLASSIFICATION_TYPE":"U","BSTAR":"-0.00429470000000","PERIAPSIS":"347.986","FILE":"3320325","PERIOD":"91.524","SITE":"AFETR"},{"COUNTRY_CODE":"US","OBJECT_TYPE":"PAYLOAD","APOAPSIS":"427.166","OBJECT_NAME":"STARLINK-3314","DECAY_DATE":null,"SEMIMAJOR_AXIS":"6804.080","PERIOD":"93.092","SITE":"AFETR","PERIAPSIS":"424.725","FILE":"3320325","BSTAR":"-0.01389400000000","CENTER_NAME":"EARTH","CLASSIFICATION_TYPE":"U","TIME_SYSTEM":"UTC","REV_AT_EPOCH":"367","TLE_LINE2":"2 50851  53.2174 318.6545 0001794  37.0113 109.5076 15.46851497  3675","MEAN_MOTION_DDOT":"0.0000000000000","ARG_OF_PERICENTER":"37.0113","REF_FRAME":"TEME","OBJECT_ID":"2022-001BA","EPOCH":"2022-02-24T22:00:00.999936","MEAN_MOTION_DOT":"-0.00653001","EPHEMERIS_TYPE":"0","TLE_LINE1":"1 50851U 22001BA  22055.91667824 -.00653001  00000-0 -13894-1 0  9994","RCS_SIZE":"LARGE","MEAN_MOTION":"15.46851497","GP_ID":"196902795","ELEMENT_SET_NO":"999","NORAD_CAT_ID":"50851","INCLINATION":"53.2174","LAUNCH_DATE":"2022-01-06","MEAN_ELEMENT_THEORY":"SGP4","ECCENTRICITY":"0.00017940","RA_OF_ASC_NODE":"318.6545","MEAN_ANOMALY":"109.5076"},{"MEAN_ELEMENT_THEORY":"SGP4","LAUNCH_DATE":"2022-01-19","NORAD_CAT_ID":"51104","INCLINATION":"53.2156","ELEMENT_SET_NO":"999","MEAN_ANOMALY":"26.3163","RA_OF_ASC_NODE":"91.6033","ECCENTRICITY":"0.00030840","MEAN_MOTION_DOT":"-0.00021111","EPOCH":"2022-02-25T00:00:00.999648","TLE_LINE2":"2 51104  53.2156  91.6033 0003084  10.9300  26.3163 15.73217985  7135","MEAN_MOTION_DDOT":"0.0000000000000","REF_FRAME":"TEME","OBJECT_ID":"2022-005A","ARG_OF_PERICENTER":"10.9300","REV_AT_EPOCH":"713","TIME_SYSTEM":"UTC","GP_ID":"196871424","TLE_LINE1":"1 51104U 22005A   22056.00001157 -.00021111  00000-0 -14620-3 0  9993","MEAN_MOTION":"15.73217985","RCS_SIZE":"LARGE","EPHEMERIS_TYPE":"0","PERIAPSIS":"347.634","FILE":"3319941","SITE":"AFETR","PERIOD":"91.532","CENTER_NAME":"EARTH","CLASSIFICATION_TYPE":"U","BSTAR":"-0.00014620000000","APOAPSIS":"351.784","OBJECT_TYPE":"PAYLOAD","COUNTRY_CODE":"US","SEMIMAJOR_AXIS":"6727.844","DECAY_DATE":null,"OBJECT_NAME":"STARLINK-3366"},{"COUNTRY_CODE":"US","OBJECT_TYPE":"PAYLOAD","APOAPSIS":"351.940","OBJECT_NAME":"STARLINK-3350","SEMIMAJOR_AXIS":"6727.883","DECAY_DATE":null,"SITE":"AFETR","PERIOD":"91.533","PERIAPSIS":"347.556","FILE":"3319930","BSTAR":"-0.00000641030000","CLASSIFICATION_TYPE":"U","CENTER_NAME":"EARTH","TLE_LINE2":"2 51105  53.2172  91.5949 0003258  12.6623  17.3628 15.73204320  7134","REF_FRAME":"TEME","MEAN_MOTION_DDOT":"0.0000000000000","OBJECT_ID":"2022-005B","ARG_OF_PERICENTER":"12.6623","TIME_SYSTEM":"UTC","REV_AT_EPOCH":"713","EPOCH":"2022-02-25T00:00:00.999648","MEAN_MOTION_DOT":"-0.00001523","GP_ID":"196870940","EPHEMERIS_TYPE":"0","TLE_LINE1":"1 51105U 22005B   22056.00001157 -.00001523  00000-0 -64103-5 0  9992","MEAN_MOTION":"15.73204320","RCS_SIZE":"LARGE","LAUNCH_DATE":"2022-01-19","ELEMENT_SET_NO":"999","INCLINATION":"53.2172","NORAD_CAT_ID":"51105","MEAN_ELEMENT_THEORY":"SGP4","RA_OF_ASC_NODE":"91.5949","ECCENTRICITY":"0.00032580","MEAN_ANOMALY":"17.3628"},{"OBJECT_NAME":"STARLINK-3176","DECAY_DATE":null,"SEMIMAJOR_AXIS":"6727.848","COUNTRY_CODE":"US","OBJECT_TYPE":"PAYLOAD","APOAPSIS":"351.989","BSTAR":"0.00030888000000","CLASSIFICATION_TYPE":"U","CENTER_NAME":"EARTH","PERIOD":"91.532","SITE":"AFETR","PERIAPSIS":"347.437","FILE":"3320325","EPHEMERIS_TYPE":"0","TLE_LINE1":"1 51106U 22005C   22055.91667824  .00042990  00000-0  30888-3 0  9993","MEAN_MOTION":"15.73216467","RCS_SIZE":"LARGE","GP_ID":"196904857","TIME_SYSTEM":"UTC","REV_AT_EPOCH":"367","TLE_LINE2":"2 51106  53.2148  92.0220 0003383  20.0025 261.6797 15.73216467  3675","MEAN_MOTION_DDOT":"0.0000000000000","ARG_OF_PERICENTER":"20.0025","OBJECT_ID":"2022-005C","REF_FRAME":"TEME","EPOCH":"2022-02-24T22:00:00.999936","MEAN_MOTION_DOT":"0.00042990","ECCENTRICITY":"0.00033830","RA_OF_ASC_NODE":"92.0220","MEAN_ANOMALY":"261.6797","ELEMENT_SET_NO":"999","NORAD_CAT_ID":"51106","INCLINATION":"53.2148","LAUNCH_DATE":"2022-01-19","MEAN_ELEMENT_THEORY":"SGP4"},{"SEMIMAJOR_AXIS":"6727.779","DECAY_DATE":null,"OBJECT_NAME":"STARLINK-3368","OBJECT_TYPE":"PAYLOAD","APOAPSIS":"351.609","COUNTRY_CODE":"US","CLASSIFICATION_TYPE":"U","CENTER_NAME":"EARTH","BSTAR":"-0.00029821000000","PERIAPSIS":"347.679","FILE":"3319931","SITE":"AFETR","PERIOD":"91.531","GP_ID":"196870958","EPHEMERIS_TYPE":"0","TLE_LINE1":"1 51107U 22005D   22056.00001157 -.00042347  00000-0 -29821-3 0  9999","MEAN_MOTION":"15.73240715","RCS_SIZE":"LARGE","EPOCH":"2022-02-25T00:00:00.999648","MEAN_MOTION_DOT":"-0.00042347","MEAN_MOTION_DDOT":"0.0000000000000","TLE_LINE2":"2 51107  53.2145  91.6162 0002921  14.4599  15.1941 15.73240715  7134","REF_FRAME":"TEME","OBJECT_ID":"2022-005D","ARG_OF_PERICENTER":"14.4599","TIME_SYSTEM":"UTC","REV_AT_EPOCH":"713","MEAN_ANOMALY":"15.1941","RA_OF_ASC_NODE":"91.6162","ECCENTRICITY":"0.00029210","MEAN_ELEMENT_THEORY":"SGP4","LAUNCH_DATE":"2022-01-19","ELEMENT_SET_NO":"999","NORAD_CAT_ID":"51107","INCLINATION":"53.2145"},{"CENTER_NAME":"EARTH","CLASSIFICATION_TYPE":"U","BSTAR":"0.00062096000000","PERIAPSIS":"347.864","FILE":"3319931","PERIOD":"91.536","SITE":"AFETR","DECAY_DATE":null,"SEMIMAJOR_AXIS":"6728.047","OBJECT_NAME":"STARLINK-3362","APOAPSIS":"351.959","OBJECT_TYPE":"PAYLOAD","COUNTRY_CODE":"US","MEAN_ANOMALY":"20.9901","ECCENTRICITY":"0.00030430","RA_OF_ASC_NODE":"91.6149","MEAN_ELEMENT_THEORY":"SGP4","INCLINATION":"53.2150","NORAD_CAT_ID":"51108","ELEMENT_SET_NO":"999","LAUNCH_DATE":"2022-01-19","TLE_LINE1":"1 51108U 22005E   22056.00001157  .00087251  00000-0  62096-3 0  9992","RCS_SIZE":"LARGE","MEAN_MOTION":"15.73146808","EPHEMERIS_TYPE":"0","GP_ID":"196870956","MEAN_MOTION_DOT":"0.00087251","EPOCH":"2022-02-25T00:00:00.999648","REV_AT_EPOCH":"712","TIME_SYSTEM":"UTC","TLE_LINE2":"2 51108  53.2150  91.6149 0003043   9.8984  20.9901 15.73146808  7125","ARG_OF_PERICENTER":"9.8984","MEAN_MOTION_DDOT":"0.0000000000000","OBJECT_ID":"2022-005E","REF_FRAME":"TEME"},{"PERIAPSIS":"347.596","FILE":"3319932","PERIOD":"91.527","SITE":"AFETR","CENTER_NAME":"EARTH","CLASSIFICATION_TYPE":"U","BSTAR":"-0.00132440000000","OBJECT_TYPE":"PAYLOAD","APOAPSIS":"351.356","COUNTRY_CODE":"US","DECAY_DATE":null,"SEMIMAJOR_AXIS":"6727.611","OBJECT_NAME":"STARLINK-3358","MEAN_ELEMENT_THEORY":"SGP4","ELEMENT_SET_NO":"999","INCLINATION":"53.2152","NORAD_CAT_ID":"51109","LAUNCH_DATE":"2022-01-19","MEAN_ANOMALY":"17.9655","ECCENTRICITY":"0.00027950","RA_OF_ASC_NODE":"90.8729","EPOCH":"2022-02-25T00:00:00.999648","MEAN_MOTION_DOT":"-0.00183333","TIME_SYSTEM":"UTC","REV_AT_EPOCH":"714","TLE_LINE2":"2 51109  53.2152  90.8729 0002795   9.1705  17.9655 15.73299670  7140","MEAN_MOTION_DDOT":"0.0000000000000","OBJECT_ID":"2022-005F","REF_FRAME":"TEME","ARG_OF_PERICENTER":"9.1705","EPHEMERIS_TYPE":"0","TLE_LINE1":"1 51109U 22005F   22056.00001157 -.00183333  00000-0 -13244-2 0  9993","MEAN_MOTION":"15.73299670","RCS_SIZE":"LARGE","GP_ID":"196871467"},{"GP_ID":"196905177","MEAN_MOTION":"15.73207493","TLE_LINE1":"1 51110U 22005G   22055.91667824 -.00013126  00000-0 -89171-4 0  9999","RCS_SIZE":"LARGE","EPHEMERIS_TYPE":"0","MEAN_MOTION_DOT":"-0.00013126","EPOCH":"2022-02-24T22:00:00.999936","TLE_LINE2":"2 51110  53.2149  92.0244 0003329  12.2512 267.6853 15.73207493  3680","OBJECT_ID":"2022-005G","MEAN_MOTION_DDOT":"0.0000000000000","REF_FRAME":"TEME","ARG_OF_PERICENTER":"12.2512","REV_AT_EPOCH":"368","TIME_SYSTEM":"UTC","MEAN_ANOMALY":"267.6853","RA_OF_ASC_NODE":"92.0244","ECCENTRICITY":"0.00033290","MEAN_ELEMENT_THEORY":"SGP4","LAUNCH_DATE":"2022-01-19","INCLINATION":"53.2149","NORAD_CAT_ID":"51110","ELEMENT_SET_NO":"999","SEMIMAJOR_AXIS":"6727.874","DECAY_DATE":null,"OBJECT_NAME":"STARLINK-3344","APOAPSIS":"351.979","OBJECT_TYPE":"PAYLOAD","COUNTRY_CODE":"US","CLASSIFICATION_TYPE":"U","CENTER_NAME":"EARTH","BSTAR":"-0.00008917100000","FILE":"3320325","PERIAPSIS":"347.499","SITE":"AFETR","PERIOD":"91.533"}];
